[{"OBJECT_NAME":"ONEWEB-0362","OBJECT_ID":"2021-090K","EPOCH":"2026-01-05T15:01:29.138880","MEAN_MOTION":13.19725196,"ECCENTRICITY":0.00015174,"INCLINATION":87.9211,"RA_OF_ASC_NODE":337.3295,"ARG_OF_PERICENTER":80.5976,"MEAN_ANOMALY":279.5328,"EPHEMERIS_TYPE":0,"CLASSIFICATION_TYPE":"U","NORAD_CAT_ID":49288,"ELEMENT_SET_NO":999,"REV_AT_EPOCH":20547,"BSTAR":0.00010728429,"MEAN_MOTION_DOT":5.6e-7,"MEAN_MOTION_DDOT":0},{"OBJECT_NAME":"ONEWEB-0363","OBJECT_ID":"2021-090L","EPOCH":"2026-01-05T08:43:08.049504","MEAN_MOTION":13.20771119,"ECCENTRICITY":0.00020568,"INCLINATION":87.9227,"RA_OF_ASC_NODE":306.9155,"ARG_OF_PERICENTER":80.7015,"MEAN_ANOMALY":279.4351,"EPHEMERIS_TYPE":0,"CLASSIFICATION_TYPE":"U","NORAD_CAT_ID":49289,"ELEMENT_SET_NO":999,"REV_AT_EPOCH":20881,"BSTAR":-0.00011994633,"MEAN_MOTION_DOT":-3.6e-7,"MEAN_MOTION_DDOT":0},{"OBJECT_NAME":"ONEWEB-0364","OBJECT_ID":"2021-090M","EPOCH":"2026-01-05T09:37:41.102688","MEAN_MOTION":13.2077048,"ECCENTRICITY":0.00018528,"INCLINATION":87.9218,"RA_OF_ASC_NODE":306.929,"ARG_OF_PERICENTER":79.0888,"MEAN_ANOMALY":281.0453,"EPHEMERIS_TYPE":0,"CLASSIFICATION_TYPE":"U","NORAD_CAT_ID":49290,"ELEMENT_SET_NO":999,"REV_AT_EPOCH":20995,"BSTAR":0.00014414355,"MEAN_MOTION_DOT":7.2e-7,"MEAN_MOTION_DDOT":0},{"OBJECT_NAME":"ONEWEB-0365","OBJECT_ID":"2021-090N","EPOCH":"2026-01-05T15:15:08.243712","MEAN_MOTION":13.19726529,"ECCENTRICITY":0.00017262,"INCLINATION":87.9229,"RA_OF_ASC_NODE":337.2972,"ARG_OF_PERICENTER":79.1434,"MEAN_ANOMALY":280.9893,"EPHEMERIS_TYPE":0,"CLASSIFICATION_TYPE":"U","NORAD_CAT_ID":49291,"ELEMENT_SET_NO":999,"REV_AT_EPOCH":20498,"BSTAR":4.9352897e-5,"MEAN_MOTION_DOT":3.3e-7,"MEAN_MOTION_DDOT":0},{"OBJECT_NAME":"ONEWEB-0366","OBJECT_ID":"2021-090P","EPOCH":"2026-01-05T14:52:42.239712","MEAN_MOTION":13.14504757,"ECCENTRICITY":0.00017555,"INCLINATION":87.9007,"RA_OF_ASC_NODE":322.1103,"ARG_OF_PERICENTER":80.6997,"MEAN_ANOMALY":279.4331,"EPHEMERIS_TYPE":0,"CLASSIFICATION_TYPE":"U","NORAD_CAT_ID":49292,"ELEMENT_SET_NO":999,"REV_AT_EPOCH":20620,"BSTAR":0.00020690015,"MEAN_MOTION_DOT":8.9e-7,"MEAN_MOTION_DDOT":0},{"OBJECT_NAME":"ONEWEB-0367","OBJECT_ID":"2021-090Q","EPOCH":"2026-01-05T14:08:08.656512","MEAN_MOTION":13.20771564,"ECCENTRICITY":0.00015681,"INCLINATION":87.923,"RA_OF_ASC_NODE":306.87,"ARG_OF_PERICENTER":72.8748,"MEAN_ANOMALY":287.2557,"EPHEMERIS_TYPE":0,"CLASSIFICATION_TYPE":"U","NORAD_CAT_ID":49293,"ELEMENT_SET_NO":999,"REV_AT_EPOCH":20836,"BSTAR":3.6654088e-5,"MEAN_MOTION_DOT":2.8e-7,"MEAN_MOTION_DDOT":0},{"OBJECT_NAME":"ONEWEB-0368","OBJECT_ID":"2021-090R","EPOCH":"2026-01-05T13:29:30.823584","MEAN_MOTION":13.20772374,"ECCENTRICITY":0.00024229,"INCLINATION":87.9221,"RA_OF_ASC_NODE":306.9029,"ARG_OF_PERICENTER":65.5698,"MEAN_ANOMALY":294.5688,"EPHEMERIS_TYPE":0,"CLASSIFICATION_TYPE":"U","NORAD_CAT_ID":49294,"ELEMENT_SET_NO":999,"REV_AT_EPOCH":20951,"BSTAR":-8.3799351e-5,"MEAN_MOTION_DOT":-2.1e-7,"MEAN_MOTION_DDOT":0},{"OBJECT_NAME":"ONEWEB-0369","OBJECT_ID":"2021-090S","EPOCH":"2026-01-05T15:08:17.180160","MEAN_MOTION":13.19724539,"ECCENTRICITY":0.00017988,"INCLINATION":87.9218,"RA_OF_ASC_NODE":337.3226,"ARG_OF_PERICENTER":79.0221,"MEAN_ANOMALY":281.1114,"EPHEMERIS_TYPE":0,"CLASSIFICATION_TYPE":"U","NORAD_CAT_ID":49295,"ELEMENT_SET_NO":999,"REV_AT_EPOCH":20497,"BSTAR":0.00020007539,"MEAN_MOTION_DOT":9.3e-7,"MEAN_MOTION_DDOT":0},{"OBJECT_NAME":"ONEWEB-0370","OBJECT_ID":"2021-090T","EPOCH":"2026-01-05T08:54:30.297600","MEAN_MOTION":13.2077097,"ECCENTRICITY":0.00014402,"INCLINATION":87.9225,"RA_OF_ASC_NODE":306.9165,"ARG_OF_PERICENTER":82.993,"MEAN_ANOMALY":277.1367,"EPHEMERIS_TYPE":0,"CLASSIFICATION_TYPE":"U","NORAD_CAT_ID":49296,"ELEMENT_SET_NO":999,"REV_AT_EPOCH":20837,"BSTAR":3.4440135e-5,"MEAN_MOTION_DOT":2.7e-7,"MEAN_MOTION_DDOT":0},{"OBJECT_NAME":"ONEWEB-0371","OBJECT_ID":"2021-090U","EPOCH":"2026-01-05T15:19:40.881504","MEAN_MOTION":13.19724711,"ECCENTRICITY":0.00017008,"INCLINATION":87.9218,"RA_OF_ASC_NODE":337.3095,"ARG_OF_PERICENTER":80.4284,"MEAN_ANOMALY":279.7041,"EPHEMERIS_TYPE":0,"CLASSIFICATION_TYPE":"U","NORAD_CAT_ID":49297,"ELEMENT_SET_NO":999,"REV_AT_EPOCH":20501,"BSTAR":-0.00010232482,"MEAN_MOTION_DOT":-2.8e-7,"MEAN_MOTION_DDOT":0},{"OBJECT_NAME":"ONEWEB-0372","OBJECT_ID":"2021-090V","EPOCH":"2026-01-05T14:05:39.913728","MEAN_MOTION":13.20771042,"ECCENTRICITY":0.0001721,"INCLINATION":87.9224,"RA_OF_ASC_NODE":306.8729,"ARG_OF_PERICENTER":72.7925,"MEAN_ANOMALY":287.3397,"EPHEMERIS_TYPE":0,"CLASSIFICATION_TYPE":"U","NORAD_CAT_ID":49298,"ELEMENT_SET_NO":999,"REV_AT_EPOCH":20837,"BSTAR":2.4867806e-5,"MEAN_MOTION_DOT":2.3e-7,"MEAN_MOTION_DDOT":0},{"OBJECT_NAME":"ONEWEB-0373","OBJECT_ID":"2021-090W","EPOCH":"2026-01-05T09:17:13.977312","MEAN_MOTION":13.20771941,"ECCENTRICITY":0.00017788,"INCLINATION":87.9217,"RA_OF_ASC_NODE":306.9247,"ARG_OF_PERICENTER":80.3881,"MEAN_ANOMALY":279.7453,"EPHEMERIS_TYPE":0,"CLASSIFICATION_TYPE":"U","NORAD_CAT_ID":49299,"ELEMENT_SET_NO":999,"REV_AT_EPOCH":20953,"BSTAR":0.00022527814,"MEAN_MOTION_DOT":1.05e-6,"MEAN_MOTION_DDOT":0},{"OBJECT_NAME":"ONEWEB-0374","OBJECT_ID":"2021-090X","EPOCH":"2026-01-05T14:34:27.224256","MEAN_MOTION":13.14503444,"ECCENTRICITY":0.00022893,"INCLINATION":87.9012,"RA_OF_ASC_NODE":322.0926,"ARG_OF_PERICENTER":81.0803,"MEAN_ANOMALY":279.0585,"EPHEMERIS_TYPE":0,"CLASSIFICATION_TYPE":"U","NORAD_CAT_ID":49300,"ELEMENT_SET_NO":999,"REV_AT_EPOCH":20620,"BSTAR":-0.00027581136,"MEAN_MOTION_DOT":-8.9e-7,"MEAN_MOTION_DDOT":0},{"OBJECT_NAME":"ONEWEB-0375","OBJECT_ID":"2021-090Y","EPOCH":"2026-01-05T08:59:03.572160","MEAN_MOTION":13.20772586,"ECCENTRICITY":0.00021621,"INCLINATION":87.9222,"RA_OF_ASC_NODE":306.9084,"ARG_OF_PERICENTER":88.542,"MEAN_ANOMALY":271.5961,"EPHEMERIS_TYPE":0,"CLASSIFICATION_TYPE":"U","NORAD_CAT_ID":49301,"ELEMENT_SET_NO":999,"REV_AT_EPOCH":20903,"BSTAR":0.00013698779,"MEAN_MOTION_DOT":6.9e-7,"MEAN_MOTION_DDOT":0},{"OBJECT_NAME":"ONEWEB-0376","OBJECT_ID":"2021-090Z","EPOCH":"2026-01-05T15:17:24.823104","MEAN_MOTION":13.19725843,"ECCENTRICITY":0.0001727,"INCLINATION":87.9228,"RA_OF_ASC_NODE":337.2987,"ARG_OF_PERICENTER":74.9268,"MEAN_ANOMALY":285.2056,"EPHEMERIS_TYPE":0,"CLASSIFICATION_TYPE":"U","NORAD_CAT_ID":49302,"ELEMENT_SET_NO":999,"REV_AT_EPOCH":20501,"BSTAR":0.00021251902,"MEAN_MOTION_DOT":9.8e-7,"MEAN_MOTION_DDOT":0},{"OBJECT_NAME":"ONEWEB-0377","OBJECT_ID":"2021-090AA","EPOCH":"2026-01-05T14:06:04.640544","MEAN_MOTION":13.20771943,"ECCENTRICITY":0.00017046,"INCLINATION":87.9226,"RA_OF_ASC_NODE":306.8685,"ARG_OF_PERICENTER":83.4456,"MEAN_ANOMALY":276.6872,"EPHEMERIS_TYPE":0,"CLASSIFICATION_TYPE":"U","NORAD_CAT_ID":49303,"ELEMENT_SET_NO":999,"REV_AT_EPOCH":20905,"BSTAR":8.4800564e-5,"MEAN_MOTION_DOT":4.7e-7,"MEAN_MOTION_DDOT":0},{"OBJECT_NAME":"ONEWEB-0378","OBJECT_ID":"2021-090AB","EPOCH":"2026-01-05T09:10:37.212960","MEAN_MOTION":13.20771684,"ECCENTRICITY":0.00018943,"INCLINATION":87.922,"RA_OF_ASC_NODE":306.9228,"ARG_OF_PERICENTER":78.6944,"MEAN_ANOMALY":281.4403,"EPHEMERIS_TYPE":0,"CLASSIFICATION_TYPE":"U","NORAD_CAT_ID":49304,"ELEMENT_SET_NO":999,"REV_AT_EPOCH":20829,"BSTAR":0.00014931452,"MEAN_MOTION_DOT":7.4e-7,"MEAN_MOTION_DDOT":0}]
