ONEWEB-0362             
1 49288U 21090K   26005.62603170  .00000056  00000+0  10728-3 0  9992
2 49288  87.9211 337.3295 0001517  80.5976 279.5328 13.19725196205470
ONEWEB-0363             
1 49289U 21090L   26005.36328761 -.00000036  00000+0 -11995-3 0  9991
2 49289  87.9227 306.9155 0002056  80.7015 279.4351 13.20771119208814
ONEWEB-0364             
1 49290U 21090M   26005.40117017  .00000072  00000+0  14414-3 0  9995
2 49290  87.9218 306.9290 0001852  79.0888 281.0453 13.20770480209956
ONEWEB-0365             
1 49291U 21090N   26005.63551208  .00000033  00000+0  49353-4 0  9993
2 49291  87.9229 337.2972 0001726  79.1434 280.9893 13.19726529204988
ONEWEB-0366             
1 49292U 21090P   26005.61993333  .00000089  00000+0  20690-3 0  9994
2 49292  87.9007 322.1103 0001755  80.6997 279.4331 13.14504757206204
ONEWEB-0367             
1 49293U 21090Q   26005.58898908  .00000028  00000+0  36654-4 0  9994
2 49293  87.9230 306.8700 0001568  72.8748 287.2557 13.20771564208369
ONEWEB-0368             
1 49294U 21090R   26005.56216231 -.00000021  00000+0 -83799-4 0  9993
2 49294  87.9221 306.9029 0002422  65.5698 294.5688 13.20772374209512
ONEWEB-0369             
1 49295U 21090S   26005.63075440  .00000093  00000+0  20008-3 0  9997
2 49295  87.9218 337.3226 0001798  79.0221 281.1114 13.19724539204972
ONEWEB-0370             
1 49296U 21090T   26005.37118400  .00000027  00000+0  34440-4 0  9996
2 49296  87.9225 306.9165 0001440  82.9930 277.1367 13.20770970208374
ONEWEB-0371             
1 49297U 21090U   26005.63866761 -.00000028  00000+0 -10232-3 0  9991
2 49297  87.9218 337.3095 0001700  80.4284 279.7041 13.19724711205016
ONEWEB-0372             
1 49298U 21090V   26005.58726752  .00000023  00000+0  24868-4 0  9995
2 49298  87.9224 306.8729 0001721  72.7925 287.3397 13.20771042208370
ONEWEB-0373             
1 49299U 21090W   26005.38696733  .00000105  00000+0  22528-3 0  9990
2 49299  87.9217 306.9247 0001778  80.3881 279.7453 13.20771941209532
ONEWEB-0374             
1 49300U 21090X   26005.60725954 -.00000089  00000+0 -27581-3 0  9993
2 49300  87.9012 322.0926 0002289  81.0803 279.0585 13.14503444206205
ONEWEB-0375             
1 49301U 21090Y   26005.37434690  .00000069  00000+0  13699-3 0  9993
2 49301  87.9222 306.9084 0002162  88.5420 271.5961 13.20772586209033
ONEWEB-0376             
1 49302U 21090Z   26005.63709286  .00000098  00000+0  21252-3 0  9995
2 49302  87.9228 337.2987 0001727  74.9268 285.2056 13.19725843205017
ONEWEB-0377             
1 49303U 21090AA  26005.58755371  .00000047  00000+0  84801-4 0  9990
2 49303  87.9226 306.8685 0001704  83.4456 276.6872 13.20771943209054
ONEWEB-0378             
1 49304U 21090AB  26005.38237515  .00000074  00000+0  14931-3 0  9990
2 49304  87.9220 306.9228 0001894  78.6944 281.4403 13.20771684208292
